IRIDIUM 7               
1 24793U 97020B   25170.40731671  .00000317  00000+0  10262-3 0  9991
2 24793  86.3981 175.9805 0002588  91.8185 268.3308 14.35940940472217
IRIDIUM 5               
1 24795U 97020D   25170.18437992  .00003542  00000+0  28856-3 0  9998
2 24795  86.3884  82.8122 0110647 130.2539 230.8432 14.94371808485768
IRIDIUM 4               
1 24796U 97020E   25170.04116549  .00000332  00000+0  10589-3 0  9994
2 24796  86.3977 173.0131 0002347  92.4900 267.6566 14.36843387472734
IRIDIUM 914             
1 24836U 97030A   25170.31681227  .00000379  00000+0  11208-3 0  9990
2 24836  86.3956 181.4872 0001970 132.6095 227.5271 14.40873730607439
IRIDIUM 16              
1 24841U 97030F   25170.48857940  .00000267  00000+0  80538-4 0  9990
2 24841  86.4049 204.3076 0004406  74.9642 285.2044 14.38716443467339
IRIDIUM 911             
1 24842U 97030G   25170.12108945  .00000389  00000+0  99915-4 0  9990
2 24842  86.4474 203.2297 0016605  91.3052 269.0054 14.47641694475365
IRIDIUM 17              
1 24870U 97034B   25170.40765724  .00000324  00000+0  10085-3 0  9999
2 24870  86.3962 233.8178 0002987  59.8498 300.2995 14.37830970463900
IRIDIUM 920             
1 24871U 97034C   25170.51417632  .00000299  00000+0  85805-4 0  9998
2 24871  86.3986 213.0021 0013853  77.2050 283.0697 14.41535932466912
